GNOMES-1                
1 46266U 20059B   26068.53916665  .00004080  00000+0  33422-3 0  9991
2 46266  97.8057 278.7760 0005451 357.8604   2.2595 14.99848479300657
STARLINK-33967          
1 64027U 25102F   26068.56583586  .00004465  00000+0  38169-3 0  9995
2 64027  70.0014 114.7685 0002934 276.8352  83.2473 14.98340747 45874
